BEIDOU 3 (C01)          
1 36287U 10001A   20258.52210663 -.00000288  00000-0  00000-0 0  9999
2 36287   1.5162  31.8993 0005327 121.5893 168.8957  1.00273697 39104
BEIDOU 5 (C06)          
1 36828U 10036A   20258.41477447 -.00000159  00000-0  10000-3 0  9992
2 36828  54.1685 182.1601 0101197 235.2018 204.3207  1.00289047 37141
BEIDOU 6 (C04)          
1 37210U 10057A   20258.59774017 -.00000122  00000-0  00000-0 0  9999
2 37210   0.9617  54.9551 0006028 127.4209 186.7447  1.00270710 36215
BEIDOU 7 (C07)          
1 37256U 10068A   20258.51774484 -.00000168  00000-0  00000-0 0  9991
2 37256  51.3327 297.2809 0082701 214.1472 148.0462  1.00284470 35731
BEIDOU 8 (C08)          
1 37384U 11013A   20258.53892366 -.00000147  00000-0  10000-3 0  9997
2 37384  59.3940  60.6926 0050793 200.9409  45.0793  1.00281414 34606
BEIDOU 9 (C09)          
1 37763U 11038A   20258.29767794 -.00000123  00000-0  10000-3 0  9998
2 37763  54.4516 184.5596 0073677 225.3338 147.0629  1.00275992 33579
BEIDOU 10 (C10)         
1 37948U 11073A   20258.58482926 -.00000112  00000-0  10000-3 0  9993
2 37948  51.4272 296.8793 0071738 215.1508 148.6822  1.00275847 32332
BEIDOU 11 (C05)         
1 38091U 12008A   20258.59725808  .00000048  00000-0  00000-0 0  9995
2 38091   1.6610  69.0955 0002304 215.0923 343.6083  1.00268322 31401
BEIDOU 12 (C11)         
1 38250U 12018A   20258.53679809 -.00000076  00000-0  10000-3 0  9992
2 38250  56.7461  14.7274 0022067 238.3594 105.7202  1.86234360 57142
BEIDOU 13 (C12)         
1 38251U 12018B   20258.29013860 -.00000077  00000-0  00000-0 0  9992
2 38251  56.6720  14.1026 0013258 237.1610 346.6352  1.86232930 57140
BEIDOU 15 (C14)         
1 38775U 12050B   20258.47527726  .00000025  00000-0  00000-0 0  9992
2 38775  55.0901 133.2929 0014542 322.8958 221.6969  1.86232398 54527
BEIDOU 16 (C02)         
1 38953U 12059A   20258.58264836 -.00000185  00000-0  00000-0 0  9999
2 38953   1.3096  84.2757 0006175 259.8330 303.6964  1.00274133 28979
BEIDOU 17 (C31)         
1 40549U 15019A   20258.47320832 -.00000157  00000-0  00000-0 0  9998
2 40549  52.9250 320.1763 0040799 191.3768 109.6534  1.00267809 20006
BEIDOU 18 (C57)         
1 40748U 15037A   20258.59477257 -.00000078  00000-0  00000-0 0  9998
2 40748  55.9365  13.3451 0001847  45.9547 291.9364  1.86232065 34979
BEIDOU 19 (C58)         
1 40749U 15037B   20258.54969438 -.00000078  00000-0  00000+0 0  9990
2 40749  55.9412  13.3339 0002493 293.9106 150.8312  1.86232288 34975
BEIDOU 20 (C18)         
1 40938U 15053A   20258.41213848 -.00000063  00000-0  00000-0 0  9996
2 40938  52.4856 283.2163 0052051 191.4919 120.2426  1.00253616 18288
BEIDOU IGSO-6 (C13)     
1 41434U 16021A   20258.30280063 -.00000110  00000-0  00000-0 0  9998
2 41434  57.1639  59.5659 0040764 203.0776 295.3028  1.00282251 16416
BEIDOU-2 G7 (C03)       
1 41586U 16037A   20258.51608736 -.00000363  00000-0  00000-0 0  9997
2 41586   1.6703  66.6725 0007531   3.0458 220.5776  1.00272989 15712
BEIDOU-3 M1 (C19)       
1 43001U 17069A   20258.41963584  .00000025  00000-0  00000-0 0  9995
2 43001  55.2446 133.2087 0008936 294.0217   9.9767  1.86231938 19459
BEIDOU-3 M2 (C20)       
1 43002U 17069B   20258.34964064  .00000024  00000-0  00000-0 0  9991
2 43002  55.2446 133.2462 0008121 318.3697 342.4815  1.86231534 19445
BEIDOU-3 M3 (C27)       
1 43107U 18003A   20258.30369561 -.00000078  00000-0  00000-0 0  9993
2 43107  55.3757  14.5605 0004024  55.2907  20.6297  1.86232639 18216
BEIDOU-3 M4 (C28)       
1 43108U 18003B   20258.64145255 -.00000078  00000-0  00000-0 0  9993
2 43108  55.3668  14.5400 0003559 223.0773 124.4499  1.86232754 18214
BEIDOU-3 M5 (C21)       
1 43207U 18018A   20258.03381979  .00000021  00000-0  00000-0 0  9994
2 43207  55.2028 133.3582 0006198 348.3885  11.6869  1.86231687 17593
BEIDOU-3 M6 (C22)       
1 43208U 18018B   20258.10058623  .00000021  00000-0  00000-0 0  9990
2 43208  55.2024 133.3609 0006959 310.6380  49.3915  1.86231578 17596
BEIDOU-3 M7 (C29)       
1 43245U 18029A   20258.28597851 -.00000080  00000-0  00000-0 0  9999
2 43245  55.3184  12.3665 0000853 177.7870 156.3075  1.86232800 16747
BEIDOU-3 M8 (C30)       
1 43246U 18029B   20258.36544889 -.00000080  00000-0  10000-3 0  9996
2 43246  55.3169  12.3945 0002855 339.1522  94.1703  1.86233322 16741
BEIDOU IGSO-7 (C16)     
1 43539U 18057A   20258.01002491 -.00000169  00000-0  00000+0 0  9995
2 43539  55.0497 181.4549 0032159 217.6527  69.6277  1.00298713  8071
BEIDOU-3 M9 (C23)       
1 43581U 18062A   20258.20868243  .00000060  00000-0  00000-0 0  9994
2 43581  54.5278 254.0837 0006554 262.8425 274.9182  1.86231878 14486
BEIDOU-3 M10 (C24)      
1 43582U 18062B   20258.28808767  .00000059  00000-0  00000-0 0  9996
2 43582  54.5260 254.0707 0005166 315.7928   6.2072  1.86232181 14480
BEIDOU-3 M11 (C25)      
1 43602U 18067A   20258.27290250  .00000059  00000-0  00000-0 0  9995
2 43602  54.5967 252.6321 0006401 341.2947  13.3493  1.86231609 13974
BEIDOU-3 M12 (C26)      
1 43603U 18067B   20258.55722112  .00000056  00000-0  00000-0 0  9991
2 43603  54.5947 252.5891 0004278 321.3793 134.4083  1.86231597 14003
BEIDOU-3 M13 (C32)      
1 43622U 18072A   20258.12692890  .00000022  00000-0  00000-0 0  9993
2 43622  55.1675 132.9338 0005650 293.3835 264.3495  1.86232019 13500
BEIDOU-3 M14 (C33)      
1 43623U 18072B   20258.53880502  .00000026  00000-0  00000+0 0  9991
2 43623  55.1701 132.9104 0004792 326.2523 237.8499  1.86232054 13517
BEIDOU-3 M15 (C34)      
1 43647U 18078A   20258.39364168 -.00000080  00000-0  10000-3 0  9998
2 43647  55.2106  12.5766 0005216 348.1162  13.8153  1.86233170 13030
BEIDOU-3 M16 (C35)      
1 43648U 18078B   20257.50248341 -.00000080  00000-0  10000-3 0  9995
2 43648  55.2065  12.6151 0003206   4.1872  29.2027  1.86232735 13024
BEIDOU-3 G1 (C59)       
1 43683U 18085A   20258.52201940 -.00000290  00000-0  00000-0 0  9998
2 43683   1.5830 251.2879 0004477 348.5307  82.1071  1.00270376  6998
BEIDOU-3 M17 (C36)      
1 43706U 18093A   20258.40948858  .00000058  00000-0  00000+0 0  9996
2 43706  54.6070 253.9153 0012111 263.9306 273.4341  1.86231830 12387
BEIDOU-3 M18 (C37)      
1 43707U 18093B   20258.27567959  .00000059  00000-0  00000+0 0  9992
2 43707  54.6081 253.9106 0010454 282.0670 256.1832  1.86232089 12382
BEIDOU-3 IGSO-1 (C38)   
1 44204U 19023A   20258.37302397 -.00000169  00000-0  10000-3 0  9991
2 44204  55.6226  59.9357 0018489 179.0407   2.4172  1.00267329  5289
BEIDOU-2 G8             
1 44231U 19027A   20258.49534851 -.00000259  00000-0  00000+0 0  9995
2 44231   0.7902 300.2136 0008051 272.3154 104.1601  1.00266527  5004
BEIDOU-3 IGSO-2 (C39)   
1 44337U 19035A   20257.60574800 -.00000159  00000-0  00000+0 0  9990
2 44337  55.0749 177.5017 0014104 188.3732 312.6571  1.00264214  4619
BEIDOU-3 M23 (C45)      
1 44542U 19061A   20258.34250229  .00000059  00000-0  10000-3 0  9998
2 44542  54.8293 253.9337 0009195 307.4496 229.4574  1.86231430  6648
BEIDOU-3 M24 (C46)      
1 44543U 19061B   20257.94085733  .00000063  00000-0  10000-3 0  9995
2 44543  54.8285 253.9182 0007158 292.5961 245.5361  1.86232045  6642
BEIDOU-3 IGSO-3         
1 44709U 19073A   20258.33646075 -.00000118  00000-0  10000-3 0  9990
2 44709  58.2637 302.9949 0025343 191.6295  85.7808  1.00258728  3375
BEIDOU-3 M21            
1 44793U 19078A   20258.40299881 -.00000080  00000-0  10000-3 0  9993
2 44793  55.0618  12.6746 0005125 355.4692 327.5088  1.86232784  5501
BEIDOU-3 M22            
1 44794U 19078B   20255.37717962 -.00000081  00000-0  10000-3 0  9993
2 44794  55.0344  12.7850 0003179 351.7268  13.0184  1.86233027  5459
BEIDOU-3 M19            
1 44864U 19090A   20258.21051300  .00000022  00000-0  00000-0 0  9998
2 44864  55.1036 133.1760 0014588 265.6023  33.4428  1.86232002  5080
BEIDOU-3 M20            
1 44865U 19090B   20258.36537696  .00000024  00000-0  10000-3 0  9998
2 44865  55.1053 133.2009 0013616 282.9722 209.8414  1.86232018  5076
BEIDOU-3 G2             
1 45344U 20017A   20258.51006809 -.00000150  00000-0  00000-0 0  9993
2 45344   2.8247 329.8540 0002123 194.1240  93.6245  1.00271512  2184
BEIDOU-3 G3             
1 45807U 20040A   20258.51617459 -.00000365  00000-0  00000-0 0  9990
2 45807   2.9217 298.6445 0007366 349.5237   2.1334  1.00270891   999
